{
    "links": {
        "self": "http://www.neowsapp.com/rest/v1/neo/3826900?api_key=iIulBulltgU6a56xZRHN4H3l9WmuAYTsLGpBGhQ2"
    },
    "id": "3826900",
    "neo_reference_id": "3826900",
    "name": "(2018 QA1)",
    "designation": "2018 QA1",
    "nasa_jpl_url": "http://ssd.jpl.nasa.gov/sbdb.cgi?sstr=3826900",
    "absolute_magnitude_h": 23.3,
    "estimated_diameter": {
        "kilometers": {
            "estimated_diameter_min": 0.058150704,
            "estimated_diameter_max": 0.130028927
        },
        "meters": {
            "estimated_diameter_min": 58.1507039646,
            "estimated_diameter_max": 130.0289270043
        },
        "miles": {
            "estimated_diameter_min": 0.0361331611,
            "estimated_diameter_max": 0.0807962044
        },
        "feet": {
            "estimated_diameter_min": 190.7831555951,
            "estimated_diameter_max": 426.6041048727
        }
    },
    "is_potentially_hazardous_asteroid": false,
    "close_approach_data": [
        {
            "close_approach_date": "2015-09-29",
            "close_approach_date_full": "2015-Sep-29 12:43",
            "epoch_date_close_approach": 1443530580000,
            "relative_velocity": {
                "kilometers_per_second": "15.4561775357",
                "kilometers_per_hour": "55642.2391286816",
                "miles_per_hour": "34573.9235297078"
            },
            "miss_distance": {
                "astronomical": "0.3184673205",
                "lunar": "123.8837876745",
                "kilometers": "47642032.811407335",
                "miles": "29603386.461737823"
            },
            "orbiting_body": "Earth"
        },
        {
            "close_approach_date": "2018-08-21",
            "close_approach_date_full": "2018-Aug-21 06:00",
            "epoch_date_close_approach": 1534831200000,
            "relative_velocity": {
                "kilometers_per_second": "11.1908408637",
                "kilometers_per_hour": "40287.0271093164",
                "miles_per_hour": "25032.7919280083"
            },
            "miss_distance": {
                "astronomical": "0.0313576338",
                "lunar": "12.1981195482",
                "kilometers": "4691035.224720006",
                "miles": "2914874.1241318428"
            },
            "orbiting_body": "Earth"
        },
        {
            "close_approach_date": "2021-07-18",
            "close_approach_date_full": "2021-Jul-18 02:39",
            "epoch_date_close_approach": 1626575940000,
            "relative_velocity": {
                "kilometers_per_second": "18.2478963409",
                "kilometers_per_hour": "65692.4268273592",
                "miles_per_hour": "40818.7193250333"
            },
            "miss_distance": {
                "astronomical": "0.3790174861",
                "lunar": "147.4378020929",
                "kilometers": "56700208.613314607",
                "miles": "35231875.9085192966"
            },
            "orbiting_body": "Earth"
        }
    ],
    "orbital_data": {
        "orbit_id": "7",
        "orbit_determination_date": "2019-07-27 14:01:08",
        "first_observation_date": "2018-08-20",
        "last_observation_date": "2018-09-08",
        "data_arc_in_days": 19,
        "observations_used": 102,
        "orbit_uncertainty": "7",
        "minimum_orbit_intersection": ".027846",
        "jupiter_tisserand_invariant": "3.584",
        "epoch_osculation": "2459000.5",
        "eccentricity": ".4958788014867109",
        "semi_major_axis": "2.051853756287535",
        "inclination": "16.14048648172028",
        "ascending_node_longitude": "148.7499927596593",
        "orbital_period": "1073.539509366273",
        "perihelion_distance": "1.034382974793666",
        "perihelion_argument": "189.4975009775849",
        "aphelion_distance": "3.069324537781404",
        "perihelion_time": "2459433.864953880638",
        "mean_anomaly": "214.6756947127866",
        "mean_motion": ".3353393115568831",
        "equinox": "J2000",
        "orbit_class": {
            "orbit_class_type": "AMO",
            "orbit_class_description": "Near-Earth asteroid orbits similar to that of 1221 Amor",
            "orbit_class_range": "1.017 AU < q (perihelion) < 1.3 AU"
        }
    },
    "is_sentry_object": false
}